STARLINK-32174          
1 61509U 24183A   26068.43441954  .00000142  00000+0  16940-4 0  9995
2 61509  53.1611 130.8300 0001353  63.8495 296.2645 15.30197352 79794
HERMES-3                
1 63835U 25052BR  26068.93751242  .00020316  00000+0  69958-3 0  9995
2 63835  97.3987 324.6131 0007993 112.9583 247.2502 15.30039785 54863
